NORAD_CAT_ID,OBJECT_NAME,OBJECT_TYPE,EPOCH,MEAN_MOTION,ECCENTRICITY,INCLINATION,RA_OF_ASC_NODE,ARG_OF_PERICENTER,MEAN_ANOMALY,BSTAR,MEAN_MOTION_DOT,MEAN_MOTION_DDOT,TLE_LINE0,TLE_LINE1,TLE_LINE2,SEMIMAJOR_AXIS,PERIOD,APOGEE,PERIGEE,DECAYED
53408.0,STARLINK-4491,PAYLOAD,2022-12-14 02:56:57,15.08841111,0.0001982,53.2183,18.375,48.2029,311.9132,2.9473e-05,1.81e-06,0.0,0 STARLINK-4491,1 53408U 22097W   22348.12289207  .00000181  00000-0  29473-4 0  9999,2 53408  53.2183  18.3750 0001982  48.2029 311.9132 15.08841111 19788,6917.877,95.437,541.113,538.371,0.0
53408.0,STARLINK-4491,PAYLOAD,2022-12-14 10:53:53,15.08840268,0.0002006,53.2185,16.8891,45.6698,314.4458,1.84e-05,5e-08,0.0,0 STARLINK-4491,1 53408U 22097W   22348.45409301  .00000005  00000-0  18400-4 0  9997,2 53408  53.2185  16.8891 0002006  45.6698 314.4458 15.08840268 20323,6917.88,95.438,541.132,538.357,0.0
53408.0,STARLINK-4491,PAYLOAD,2022-12-14 18:50:49,15.08846207,0.0002012,53.2185,15.4025,41.2242,318.8902,-9.7379e-05,-1.838e-05,0.0,0 STARLINK-4491,1 53408U 22097W   22348.78529265 -.00001838  00000-0 -97379-4 0  9994,2 53408  53.2185  15.4025 0002012  41.2242 318.8902 15.08846207 20377,6917.861,95.437,541.118,538.335,0.0
53408.0,STARLINK-4491,PAYLOAD,2022-12-15 12:20:03,15.08841628,0.0002163,53.2185,12.1314,38.4439,321.6707,3.9145e-05,3.35e-06,0.0,0 STARLINK-4491,1 53408U 22097W   22349.51393182  .00000335  00000-0  39145-4 0  9999,2 53408  53.2185  12.1314 0002163  38.4439 321.6707 15.08841628 20484,6917.875,95.437,541.237,538.244,0.0
53408.0,STARLINK-4491,PAYLOAD,2022-12-15 13:55:26,15.08841172,0.0002166,53.2184,11.8341,38.5512,321.5634,2.909e-05,1.75e-06,0.0,0 STARLINK-4491,1 53408U 22097W   22349.58017235  .00000175  00000-0  29090-4 0  9998,2 53408  53.2184  11.8341 0002166  38.5512 321.5634 15.08841172 20005,6917.877,95.437,541.24,538.243,0.0
53408.0,STARLINK-4491,PAYLOAD,2022-12-15 18:41:35,15.08845648,0.0002085,53.2181,10.9419,41.0974,319.0175,3.8973e-05,3.32e-06,0.0,0 STARLINK-4491,1 53408U 22097W   22349.77888847  .00000332  00000-0  38973-4 0  9999,2 53408  53.2181  10.9419 0002085  41.0974 319.0175 15.08845648 20520,6917.863,95.437,541.17,538.286,0.0
53408.0,STARLINK-4491,PAYLOAD,2022-12-16 10:35:27,15.08839228,0.0002049,53.2187,7.9685,41.3816,318.7331,5.7093e-06,-1.97e-06,0.0,0 STARLINK-4491,1 53408U 22097W   22350.44129260 -.00000197  00000-0  57093-5 0  9997,2 53408  53.2187   7.9685 0002049  41.3816 318.7331 15.08839228 20623,6917.8830000000025,95.438,541.165,538.33,0.0
53408.0,STARLINK-4491,PAYLOAD,2022-12-17 00:53:56,15.08835235,0.0002249,53.2179,5.2927,40.276,319.8399,-2.4356e-05,-6.76e-06,0.0,0 STARLINK-4491,1 53408U 22097W   22351.03745721 -.00000676  00000-0 -24356-4 0  9997,2 53408  53.2179   5.2927 0002249  40.2760 319.8399 15.08835235 20228,6917.895,95.438,541.316,538.2040000000002,0.0
53408.0,STARLINK-4491,PAYLOAD,2022-12-17 10:26:15,15.08837537,0.0002226,53.2178,3.5076,42.118,317.9983,-4.4665e-05,-9.99e-06,0.0,0 STARLINK-4491,1 53408U 22097W   22351.43489741 -.00000999  00000-0 -44665-4 0  9991,2 53408  53.2178   3.5076 0002226  42.1180 317.9983 15.08837537 20770,6917.888000000001,95.438,541.293,538.2130000000002,0.0
53408.0,STARLINK-4491,PAYLOAD,2022-12-17 18:23:10,15.08835813,0.0002202,53.2181,2.021,42.9694,317.147,-1.5165999999999992e-05,-5.3e-06,0.0,0 STARLINK-4491,1 53408U 22097W   22351.76609771 -.00000530  00000-0 -15166-4 0  9999,2 53408  53.2181   2.0210 0002202  42.9694 317.1470 15.08835813 20824,6917.893,95.438,541.2819999999998,538.235,0.0
53408.0,STARLINK-4491,PAYLOAD,2022-12-18 10:17:02,15.08829055,0.0002151,53.2193,359.0485,36.9932,323.1208,-8.4856e-05,-1.638e-05,0.0,0 STARLINK-4491,1 53408U 22097W   22352.42850568 -.00001638  00000-0 -84856-4 0  9997,2 53408  53.2193 359.0485 0002151  36.9932 323.1208 15.08829055 20925,6917.9140000000025,95.438,541.2669999999998,538.2909999999998,0.0
53408.0,STARLINK-4491,PAYLOAD,2022-12-19 06:57:02,15.08843164,0.0002147,53.219,355.1808,41.3506,318.7648,7.5178e-05,9.09e-06,0.0,0 STARLINK-4491,1 53408U 22097W   22353.28961505  .00000909  00000-0  75178-4 0  9991,2 53408  53.2190 355.1808 0002147  41.3506 318.7648 15.08843164 20565,6917.871,95.437,541.221,538.25,0.0
53408.0,STARLINK-4491,PAYLOAD,2022-12-20 09:58:35,15.08839446,0.0002135,53.2188,350.1267,44.8256,315.2909,0.00011998,1.622e-05,0.0,0 STARLINK-4491,1 53408U 22097W   22354.41569063  .00001622  00000-0  11998-3 0  9992,2 53408  53.2188 350.1267 0002135  44.8256 315.2909 15.08839446 20732,6917.882,95.438,541.224,538.27,0.0
53408.0,STARLINK-4491,PAYLOAD,2022-12-20 16:20:08,15.08838389,0.0002389,53.2191,348.9384,42.9507,317.1671,-4.3448e-05,-9.8e-06,0.0,0 STARLINK-4491,1 53408U 22097W   22354.68065896 -.00000980  00000-0 -43448-4 0  9990,2 53408  53.2191 348.9384 0002389  42.9507 317.1671 15.08838389 20776,6917.885,95.438,541.403,538.0980000000002,0.0
53408.0,STARLINK-4491,PAYLOAD,2022-12-21 11:24:47,15.08828858,0.0002038,53.2186,345.3676,34.9431,325.1695,-0.00015411,-2.739e-05,0.0,0 STARLINK-4491,1 53408U 22097W   22355.47555008 -.00002739  00000-0 -15411-3 0  9999,2 53408  53.2186 345.3676 0002038  34.9431 325.1695 15.08828858 20891,6917.9140000000025,95.438,541.189,538.37,0.0
53408.0,STARLINK-4491,PAYLOAD,2022-12-22 06:29:24,15.08840838,0.0002018,53.2177,341.8004,32.1897,327.9218,-0.00011348,-2.094e-05,0.0,0 STARLINK-4491,1 53408U 22097W   22356.27042457 -.00002094  00000-0 -11348-3 0  9996,2 53408  53.2177 341.8004 0002018  32.1897 327.9218 15.08840838 21019,6917.878000000002,95.438,541.139,538.347,0.0
53408.0,STARLINK-4491,PAYLOAD,2022-12-22 09:40:11,15.08833716,0.0002072,53.2175,341.2053,34.366,325.7466,-0.00014187,-2.545e-05,0.0,0 STARLINK-4491,1 53408U 22097W   22356.40291023 -.00002545  00000-0 -14187-3 0  9991,2 53408  53.2175 341.2053 0002072  34.3660 325.7466 15.08833716 21037,6917.9,95.438,541.198,538.331,0.0
53408.0,STARLINK-4491,PAYLOAD,2022-12-22 16:01:43,15.08834516,0.0002051,53.218,340.0163,38.9248,321.1891,-5.9888e-05,-1.241e-05,0.0,0 STARLINK-4491,1 53408U 22097W   22356.66786799 -.00001241  00000-0 -59888-4 0  9998,2 53408  53.2180 340.0163 0002051  38.9248 321.1891 15.08834516 21560,6917.897,95.438,541.181,538.3430000000002,0.0
53408.0,STARLINK-4491,PAYLOAD,2022-12-23 07:55:35,15.0882404,0.0001943,53.218,337.0423,36.4893,323.6231,9.7948e-05,1.27e-05,0.0,0 STARLINK-4491,1 53408U 22097W   22357.33027269  .00001270  00000-0  97948-4 0  9992,2 53408  53.2180 337.0423 0001943  36.4893 323.6231 15.08824040 21660,6917.929,95.439,541.138,538.45,0.0
53408.0,STARLINK-4491,PAYLOAD,2022-12-23 23:49:26,15.08834262,0.0002018,53.2175,334.0695,38.3142,321.7993,0.00013272,1.824e-05,0.0,0 STARLINK-4491,1 53408U 22097W   22357.99266719  .00001824  00000-0  13272-3 0  9991,2 53408  53.2175 334.0695 0002018  38.3142 321.7993 15.08834262 21272,6917.898,95.438,541.159,538.367,0.0
53408.0,STARLINK-4491,PAYLOAD,2022-12-24 10:57:07,15.08840238,0.0001929,53.2175,331.9873,39.389,320.7242,0.00017766,2.54e-05,0.0,0 STARLINK-4491,1 53408U 22097W   22358.45634137  .00002540  00000-0  17766-3 0  9994,2 53408  53.2175 331.9873 0001929  39.3890 320.7242 15.08840238 21341,6917.88,95.438,541.0790000000002,538.41,0.0
53408.0,STARLINK-4491,PAYLOAD,2022-12-24 15:43:17,15.08840745,0.0002141,53.2183,331.0959,42.9055,317.2104,0.00011703,1.575e-05,0.0,0 STARLINK-4491,1 53408U 22097W   22358.65506474  .00001575  00000-0  11703-3 0  9990,2 53408  53.2183 331.0959 0002141  42.9055 317.2104 15.08840745 21864,6917.878000000002,95.438,541.224,538.262,0.0
53408.0,STARLINK-4491,PAYLOAD,2022-12-25 04:26:22,15.08840225,0.000205,53.2184,328.7167,42.6562,317.4589,2.6401e-05,1.32e-06,0.0,0 STARLINK-4491,1 53408U 22097W   22359.18498745  .00000132  00000-0  26401-4 0  9990,2 53408  53.2184 328.7167 0002050  42.6562 317.4589 15.08840225 21455,6917.88,95.438,541.163,538.327,0.0
53408.0,STARLINK-4491,PAYLOAD,2022-12-25 07:37:09,15.08836604,0.0002067,53.2186,328.1202,46.1165,313.9997,5.0232e-05,5.11e-06,0.0,0 STARLINK-4491,1 53408U 22097W   22359.31746821  .00000511  00000-0  50232-4 0  9996,2 53408  53.2186 328.1202 0002067  46.1165 313.9997 15.08836604 21963,6917.891,95.438,541.186,538.326,0.0
53408.0,STARLINK-4491,PAYLOAD,2022-12-25 15:34:05,15.0883061,0.0002194,53.218,326.6348,43.8793,316.2373,-3.1094000000000004e-05,-7.83e-06,0.0,0 STARLINK-4491,1 53408U 22097W   22359.64867610 -.00000783  00000-0 -31094-4 0  9990,2 53408  53.2180 326.6348 0002194  43.8793 316.2373 15.08830610 21520,6917.909000000002,95.438,541.2919999999998,538.256,0.0
53408.0,STARLINK-4491,PAYLOAD,2022-12-26 04:17:09,15.08845397,0.0002174,53.2175,324.2554,44.9323,315.1845,-6.9754e-05,-1.398e-05,0.0,0 STARLINK-4491,1 53408U 22097W   22360.17858733 -.00001398  00000-0 -69754-4 0  9993,2 53408  53.2175 324.2554 0002174  44.9323 315.1845 15.08845397 21605,6917.864000000001,95.437,541.2330000000002,538.225,0.0
53408.0,STARLINK-4491,PAYLOAD,2022-12-26 21:46:24,15.08843022,0.0002279,53.2162,320.9861,38.9908,321.1248,-2.1035e-05,-6.23e-06,0.0,0 STARLINK-4491,1 53408U 22097W   22360.90722711 -.00000623  00000-0 -21035-4 0  9990,2 53408  53.2162 320.9861 0002279  38.9908 321.1248 15.08843022 22207,6917.871,95.437,541.313,538.16,0.0
53408.0,STARLINK-4491,PAYLOAD,2022-12-27 04:07:55,15.08852209,0.0002132,53.2164,319.7944,46.5467,313.5702,9.6182e-05,1.243e-05,0.0,0 STARLINK-4491,1 53408U 22097W   22361.17217524  .00001243  00000-0  96182-4 0  9993,2 53408  53.2164 319.7944 0002132  46.5467 313.5702 15.08852209 21756,6917.843000000003,95.437,541.183,538.2330000000002,0.0
53408.0,STARLINK-4491,PAYLOAD,2022-12-27 07:18:42,15.08850211,0.0002044,53.217,319.2025,34.9566,325.156,6.7946e-05,7.94e-06,0.0,0 STARLINK-4491,1 53408U 22097W   22361.30465744  .00000794  00000-0  67946-4 0  9993,2 53408  53.2170 319.2025 0002044  34.9566 325.1560 15.08850211 22260,6917.849,95.437,541.128,538.3,0.0
